start=new Date('2022-04-22T00:00:00.000Z').valueOf();
sats=[{"GP_ID":"201775358","REF_FRAME":"TEME","OBJECT_TYPE":"PAYLOAD","MEAN_ANOMALY":"320.0566","BSTAR":"0.00006144200000","MEAN_MOTION":"15.06395645","FILE":"3410450","ELEMENT_SET_NO":"999","ARG_OF_PERICENTER":"40.0573","PERIAPSIS":"545.813","APOAPSIS":"548.641","DECAY_DATE":null,"CLASSIFICATION_TYPE":"U","NORAD_CAT_ID":"46706","TLE_LINE1":"1 46706U 20073AN  22111.73931226  .00000633  00000-0  61442-4 0  9998","COUNTRY_CODE":"US","TLE_LINE2":"2 46706  53.0558 127.0473 0002042  40.0573 320.0566 15.06395645 83896","OBJECT_NAME":"STARLINK-1807","MEAN_ELEMENT_THEORY":"SGP4","RA_OF_ASC_NODE":"127.0473","LAUNCH_DATE":"2020-10-18","MEAN_MOTION_DOT":"0.00000633","EPOCH":"2022-04-21T17:44:36.579264","RCS_SIZE":"LARGE","TIME_SYSTEM":"UTC","EPHEMERIS_TYPE":"0","REV_AT_EPOCH":"8389","SITE":"AFETR","PERIOD":"95.592","INCLINATION":"53.0558","ECCENTRICITY":"0.00020420","MEAN_MOTION_DDOT":"0.0000000000000","CENTER_NAME":"EARTH","SEMIMAJOR_AXIS":"6925.362","OBJECT_ID":"2020-073AN"},{"EPHEMERIS_TYPE":"0","TIME_SYSTEM":"UTC","REV_AT_EPOCH":"8365","EPOCH":"2022-04-21T11:09:10.292544","RCS_SIZE":"LARGE","LAUNCH_DATE":"2020-10-18","MEAN_MOTION_DOT":"0.00000289","RA_OF_ASC_NODE":"108.2654","CENTER_NAME":"EARTH","MEAN_MOTION_DDOT":"0.0000000000000","OBJECT_ID":"2020-073AP","SEMIMAJOR_AXIS":"6925.362","INCLINATION":"53.0558","ECCENTRICITY":"0.00020400","SITE":"AFETR","PERIOD":"95.592","FILE":"3410449","MEAN_MOTION":"15.06395654","ELEMENT_SET_NO":"999","REF_FRAME":"TEME","OBJECT_TYPE":"PAYLOAD","MEAN_ANOMALY":"318.0142","BSTAR":"0.00003831900000","GP_ID":"201748966","MEAN_ELEMENT_THEORY":"SGP4","COUNTRY_CODE":"US","TLE_LINE2":"2 46707  53.0558 108.2654 0002040  42.1004 318.0142 15.06395654 83650","TLE_LINE1":"1 46707U 20073AP  22111.46470246  .00000289  00000-0  38319-4 0  9993","OBJECT_NAME":"STARLINK-1808","NORAD_CAT_ID":"46707","DECAY_DATE":null,"CLASSIFICATION_TYPE":"U","PERIAPSIS":"545.814","ARG_OF_PERICENTER":"42.1004","APOAPSIS":"548.640"},{"CENTER_NAME":"EARTH","MEAN_MOTION_DDOT":"0.0000000000000","OBJECT_ID":"2020-073AQ","SEMIMAJOR_AXIS":"6715.080","SITE":"AFETR","PERIOD":"91.272","INCLINATION":"53.0497","ECCENTRICITY":"0.00034380","EPOCH":"2022-04-21T19:49:39.302112","RCS_SIZE":"LARGE","TIME_SYSTEM":"UTC","EPHEMERIS_TYPE":"0","REV_AT_EPOCH":"8478","RA_OF_ASC_NODE":"30.1226","LAUNCH_DATE":"2020-10-18","MEAN_MOTION_DOT":"0.00162546","COUNTRY_CODE":"US","TLE_LINE2":"2 46708  53.0497  30.1226 0003438 126.5406 233.5930 15.77705775 84784","TLE_LINE1":"1 46708U 20073AQ  22111.82614933  .00162546  00000-0  93647-3 0  9996","OBJECT_NAME":"STARLINK-1809","MEAN_ELEMENT_THEORY":"SGP4","PERIAPSIS":"334.636","ARG_OF_PERICENTER":"126.5406","APOAPSIS":"339.253","DECAY_DATE":null,"CLASSIFICATION_TYPE":"U","NORAD_CAT_ID":"46708","OBJECT_TYPE":"PAYLOAD","REF_FRAME":"TEME","MEAN_ANOMALY":"233.5930","BSTAR":"0.00093647000000","FILE":"3410450","MEAN_MOTION":"15.77705775","ELEMENT_SET_NO":"999","GP_ID":"201774862"},{"GP_ID":"201775113","BSTAR":"0.00006001300000","OBJECT_TYPE":"PAYLOAD","REF_FRAME":"TEME","MEAN_ANOMALY":"311.1824","ELEMENT_SET_NO":"999","MEAN_MOTION":"15.06381824","FILE":"3410450","APOAPSIS":"548.530","PERIAPSIS":"546.009","ARG_OF_PERICENTER":"48.9322","DECAY_DATE":null,"NORAD_CAT_ID":"46709","CLASSIFICATION_TYPE":"U","OBJECT_NAME":"STARLINK-1810","COUNTRY_CODE":"US","TLE_LINE2":"2 46709  53.0541 142.6995 0001820  48.9322 311.1824 15.06381824 83651","TLE_LINE1":"1 46709U 20073AR  22111.59508853  .00000612  00000-0  60013-4 0  9991","MEAN_ELEMENT_THEORY":"SGP4","RA_OF_ASC_NODE":"142.6995","MEAN_MOTION_DOT":"0.00000612","LAUNCH_DATE":"2020-10-18","RCS_SIZE":"LARGE","EPOCH":"2022-04-21T14:16:55.648992","REV_AT_EPOCH":"8365","TIME_SYSTEM":"UTC","EPHEMERIS_TYPE":"0","PERIOD":"95.593","SITE":"AFETR","ECCENTRICITY":"0.00018200","INCLINATION":"53.0541","SEMIMAJOR_AXIS":"6925.404","OBJECT_ID":"2020-073AR","CENTER_NAME":"EARTH","MEAN_MOTION_DDOT":"0.0000000000000"},{"DECAY_DATE":null,"NORAD_CAT_ID":"46710","CLASSIFICATION_TYPE":"U","APOAPSIS":"548.467","ARG_OF_PERICENTER":"51.2374","PERIAPSIS":"545.921","MEAN_ELEMENT_THEORY":"SGP4","OBJECT_NAME":"STARLINK-1811","TLE_LINE1":"1 46710U 20073AS  22111.49280491  .00002668  00000-0  19792-3 0  9997","TLE_LINE2":"2 46710  53.0539 143.1431 0001838  51.2374 308.8779 15.06406262 83166","COUNTRY_CODE":"US","GP_ID":"201750492","ELEMENT_SET_NO":"999","MEAN_MOTION":"15.06406262","FILE":"3410449","BSTAR":"0.00019792000000","MEAN_ANOMALY":"308.8779","OBJECT_TYPE":"PAYLOAD","REF_FRAME":"TEME","ECCENTRICITY":"0.00018380","INCLINATION":"53.0539","PERIOD":"95.592","SITE":"AFETR","OBJECT_ID":"2020-073AS","SEMIMAJOR_AXIS":"6925.329","MEAN_MOTION_DDOT":"0.0000000000000","CENTER_NAME":"EARTH","MEAN_MOTION_DOT":"0.00002668","LAUNCH_DATE":"2020-10-18","RA_OF_ASC_NODE":"143.1431","REV_AT_EPOCH":"8316","TIME_SYSTEM":"UTC","EPHEMERIS_TYPE":"0","RCS_SIZE":"LARGE","EPOCH":"2022-04-21T11:49:38.344224"},{"TLE_LINE1":"1 46711U 20073AT  22111.73193219  .00003999  00000-0  28716-3 0  9990","TLE_LINE2":"2 46711  53.0534 127.0844 0002326  39.6541 320.4617 15.06411142 83872","COUNTRY_CODE":"US","OBJECT_NAME":"STARLINK-1813","MEAN_ELEMENT_THEORY":"SGP4","ARG_OF_PERICENTER":"39.6541","PERIAPSIS":"545.569","APOAPSIS":"548.790","CLASSIFICATION_TYPE":"U","DECAY_DATE":null,"NORAD_CAT_ID":"46711","REF_FRAME":"TEME","OBJECT_TYPE":"PAYLOAD","MEAN_ANOMALY":"320.4617","BSTAR":"0.00028716000000","FILE":"3410450","MEAN_MOTION":"15.06411142","ELEMENT_SET_NO":"999","GP_ID":"201774112","MEAN_MOTION_DDOT":"0.0000000000000","CENTER_NAME":"EARTH","OBJECT_ID":"2020-073AT","SEMIMAJOR_AXIS":"6925.314","SITE":"AFETR","PERIOD":"95.591","INCLINATION":"53.0534","ECCENTRICITY":"0.00023260","EPOCH":"2022-04-21T17:33:58.941216","RCS_SIZE":"LARGE","TIME_SYSTEM":"UTC","EPHEMERIS_TYPE":"0","REV_AT_EPOCH":"8387","RA_OF_ASC_NODE":"127.0844","LAUNCH_DATE":"2020-10-18","MEAN_MOTION_DOT":"0.00003999"},{"TLE_LINE2":"2 46712  53.0529 126.9292 0001767  49.2888 310.8255 15.06397254 83419","COUNTRY_CODE":"US","TLE_LINE1":"1 46712U 20073AU  22111.76416941 -.00000668  00000-0 -25953-4 0  9997","OBJECT_NAME":"STARLINK-1814","MEAN_ELEMENT_THEORY":"SGP4","PERIAPSIS":"545.998","ARG_OF_PERICENTER":"49.2888","APOAPSIS":"548.446","CLASSIFICATION_TYPE":"U","DECAY_DATE":null,"NORAD_CAT_ID":"46712","MEAN_ANOMALY":"310.8255","OBJECT_TYPE":"PAYLOAD","REF_FRAME":"TEME","BSTAR":"-0.00002595300000","MEAN_MOTION":"15.06397254","FILE":"3410450","ELEMENT_SET_NO":"999","GP_ID":"201774362","CENTER_NAME":"EARTH","MEAN_MOTION_DDOT":"0.0000000000000","SEMIMAJOR_AXIS":"6925.357","OBJECT_ID":"2020-073AU","SITE":"AFETR","PERIOD":"95.592","INCLINATION":"53.0529","ECCENTRICITY":"0.00017670","EPOCH":"2022-04-21T18:20:24.237024","RCS_SIZE":"LARGE","EPHEMERIS_TYPE":"0","TIME_SYSTEM":"UTC","REV_AT_EPOCH":"8341","RA_OF_ASC_NODE":"126.9292","LAUNCH_DATE":"2020-10-18","MEAN_MOTION_DOT":"-0.00000668"},{"EPOCH":"2022-04-21T10:39:59.453568","RCS_SIZE":"LARGE","TIME_SYSTEM":"UTC","EPHEMERIS_TYPE":"0","REV_AT_EPOCH":"8336","RA_OF_ASC_NODE":"128.3624","LAUNCH_DATE":"2020-10-18","MEAN_MOTION_DOT":"0.00000741","MEAN_MOTION_DDOT":"0.0000000000000","CENTER_NAME":"EARTH","SEMIMAJOR_AXIS":"6925.376","OBJECT_ID":"2020-073AV","SITE":"AFETR","PERIOD":"95.593","INCLINATION":"53.0532","ECCENTRICITY":"0.00018120","MEAN_ANOMALY":"309.8152","OBJECT_TYPE":"PAYLOAD","REF_FRAME":"TEME","BSTAR":"0.00006864400000","FILE":"3410449","MEAN_MOTION":"15.06391169","ELEMENT_SET_NO":"999","GP_ID":"201749744","TLE_LINE1":"1 46713U 20073AV  22111.44443812  .00000741  00000-0  68644-4 0  9994","COUNTRY_CODE":"US","TLE_LINE2":"2 46713  53.0532 128.3624 0001812  50.2996 309.8152 15.06391169 83369","OBJECT_NAME":"STARLINK-1815","MEAN_ELEMENT_THEORY":"SGP4","ARG_OF_PERICENTER":"50.2996","PERIAPSIS":"545.986","APOAPSIS":"548.496","DECAY_DATE":null,"CLASSIFICATION_TYPE":"U","NORAD_CAT_ID":"46713"},{"MEAN_MOTION":"15.06406981","FILE":"3410450","ELEMENT_SET_NO":"999","OBJECT_TYPE":"PAYLOAD","MEAN_ANOMALY":"306.5547","REF_FRAME":"TEME","BSTAR":"0.00009077100000","GP_ID":"201775359","MEAN_ELEMENT_THEORY":"SGP4","TLE_LINE1":"1 46714U 20073AW  22111.76510244  .00001071  00000-0  90771-4 0  9997","COUNTRY_CODE":"US","TLE_LINE2":"2 46714  53.0529 126.9333 0001801  53.5608 306.5547 15.06406981 83418","OBJECT_NAME":"STARLINK-1816","DECAY_DATE":null,"NORAD_CAT_ID":"46714","CLASSIFICATION_TYPE":"U","ARG_OF_PERICENTER":"53.5608","PERIAPSIS":"545.945","APOAPSIS":"548.439","TIME_SYSTEM":"UTC","EPHEMERIS_TYPE":"0","REV_AT_EPOCH":"8341","EPOCH":"2022-04-21T18:21:44.850816","RCS_SIZE":"LARGE","LAUNCH_DATE":"2020-10-18","MEAN_MOTION_DOT":"0.00001071","RA_OF_ASC_NODE":"126.9333","MEAN_MOTION_DDOT":"0.0000000000000","CENTER_NAME":"EARTH","SEMIMAJOR_AXIS":"6925.327","OBJECT_ID":"2020-073AW","INCLINATION":"53.0529","ECCENTRICITY":"0.00018010","SITE":"AFETR","PERIOD":"95.592"},{"RA_OF_ASC_NODE":"126.9528","LAUNCH_DATE":"2020-10-18","MEAN_MOTION_DOT":"-0.00001050","EPOCH":"2022-04-21T18:16:26.616288","RCS_SIZE":"LARGE","EPHEMERIS_TYPE":"0","TIME_SYSTEM":"UTC","REV_AT_EPOCH":"8341","SITE":"AFETR","PERIOD":"95.591","INCLINATION":"53.0544","ECCENTRICITY":"0.00020790","CENTER_NAME":"EARTH","MEAN_MOTION_DDOT":"0.0000000000000","OBJECT_ID":"2020-073AX","SEMIMAJOR_AXIS":"6925.313","GP_ID":"201774613","OBJECT_TYPE":"PAYLOAD","MEAN_ANOMALY":"313.9924","REF_FRAME":"TEME","BSTAR":"-0.00005154500000","FILE":"3410450","MEAN_MOTION":"15.06411703","ELEMENT_SET_NO":"999","PERIAPSIS":"545.738","ARG_OF_PERICENTER":"46.1237","APOAPSIS":"548.617","NORAD_CAT_ID":"46715","DECAY_DATE":null,"CLASSIFICATION_TYPE":"U","TLE_LINE2":"2 46715  53.0544 126.9528 0002079  46.1237 313.9924 15.06411703 83415","COUNTRY_CODE":"US","TLE_LINE1":"1 46715U 20073AX  22111.76141917 -.00001050  00000-0 -51545-4 0  9990","OBJECT_NAME":"STARLINK-1817","MEAN_ELEMENT_THEORY":"SGP4"}];
